WREN-1                  
1 60478U 24149L   26181.17963154  .00018996  00000+0  44621-3 0  9991
2 60478  97.3771 265.4323 0004297 197.1500 162.9603 15.42055790104326
TOMORROW-S1             
1 60479U 24149M   26181.64975946  .00007446  00000+0  23674-3 0  9999
2 60479  97.3752 262.0805 0002953 166.7550 193.3771 15.32904279104157
FLOCK 4BE-18            
1 60480U 24149N   26181.18888927  .00015420  00000+0  36028-3 0  9990
2 60480  97.3733 265.0572 0003827 188.2931 171.8253 15.42263296104317
FLOCK 4BE-7             
1 60481U 24149P   26181.53363091  .00021945  00000+0  53603-3 0  9997
2 60481  97.3762 264.7198 0003319 186.6447 173.4757 15.40847879104309
TOMORROW-S2             
1 60485U 24149T   26181.81052361  .00009032  00000+0  28622-3 0  9993
2 60485  97.3821 262.7429 0002470 188.0669 172.0534 15.32948293104179
FLOCK 4BE-36            
1 60486U 24149U   26181.47740742  .00012902  00000+0  29354-3 0  9996
2 60486  97.3751 266.0678 0003572 195.6017 164.5121 15.43103581104409
FLOCK 4BE-25            
1 60487U 24149V   26181.22185483  .00012845  00000+0  33280-3 0  9994
2 60487  97.3804 264.4627 0002602 176.8937 183.2325 15.39167310104241
FLOCK 4BE-31            
1 60488U 24149W   26181.23697558  .00020079  00000+0  43312-3 0  9992
2 60488  97.3806 266.7204 0002648 190.6690 169.4502 15.44594041104390
FLOCK 4BE-20            
1 60489U 24149X   26181.77723409  .00021641  00000+0  57166-3 0  9995
2 60489  97.3704 263.8665 0003831 194.9810 165.1323 15.38452214104306
FLOCK 4BE-23            
1 60490U 24149Y   26181.18543347  .00013087  00000+0  35215-3 0  9999
2 60490  97.3787 263.6555 0003252 199.8799 160.2320 15.37993684104192
FLOCK 4BE-17            
1 60492U 24149AA  26181.21659412  .00014595  00000+0  36580-3 0  9997
2 60492  97.3779 264.6911 0003241 186.7218 173.3985 15.40151115104260
NUSAT-50 (NANCY ROMAN)  
1 60493U 24149AB  26181.18370783  .00008551  00000+0  29625-3 0  9992
2 60493  97.3794 262.3501 0004444 138.0677 222.0905 15.30075804104110
FLOCK 4BE-22            
1 60494U 24149AC  26181.18640704  .00014563  00000+0  34861-3 0  9994
2 60494  97.3740 264.8729 0003500 199.1242 160.9874 15.41546540104307
FLOCK 4BE-34            
1 60495U 24149AD  26181.65807020  .00015232  00000+0  36458-3 0  9991
2 60495  97.3787 266.1804 0003376 204.2123 155.8966 15.41540116104404
TYCHE                   
1 60496U 24149AE  26181.57861986  .00004456  00000+0  17685-3 0  9991
2 60496  97.3759 259.2159 0002001 203.8329 156.2817 15.25862065103947
FLOCK 4BE-32            
1 60497U 24149AF  26181.74742053  .00018589  00000+0  42877-3 0  9997
2 60497  97.3725 265.8242 0003668 201.1430 158.9666 15.42609319104426
NUSAT-48 (HENRIETTA LE*)
1 60498U 24149AG  26181.17232637  .00027011  00000+0  92890-3 0  9997
2 60498  97.3914 262.6066 0002869 207.9652 152.1434 15.30050739104127
NUSAT-49 (KLARA DAN VO*)
1 60500U 24149AJ  26181.47666697  .00008120  00000+0  28084-3 0  9995
2 60500  97.3785 262.6732 0001055 214.2373 145.8800 15.30157377104160
FLOCK 4BE-11            
1 60501U 24149AK  26181.21619613  .00015737  00000+0  35397-3 0  9991
2 60501  97.3705 265.5297 0003672 202.7259 157.3827 15.43398614104367
YAM-7                   
1 60504U 24149AN  26181.64396911  .00007347  00000+0  24033-3 0  9997
2 60504  97.3787 261.8398 0002249 223.2257 136.8808 15.31997732104113
FLOCK 4BE-24            
1 60505U 24149AP  26181.20175195  .00018152  00000+0  40585-3 0  9995
2 60505  97.3723 265.7761 0003781 216.4880 143.6111 15.43546513104370
LUR-1                   
1 60506U 24149AQ  26181.19165726  .00006388  00000+0  22074-3 0  9994
2 60506  97.3742 259.9264 0002657 247.0463 113.0498 15.30268934103960
TANAGER-1               
1 60507U 24149AR  26180.72607836  .00000386  00000+0  10080-4 0  9993
2 60507  97.2372 274.9407 0002692 239.9855 120.1127 15.44749026104970
EAGLEEYE                
1 60508U 24149AS  26181.72772834  .00117842  00000+0  83661-3 0  9996
2 60508  97.3719 275.8377 0004954 208.7374 151.3617 15.73545361105065
FLOCK 4BE-29            
1 60509U 24149AT  26181.20377055  .00016885  00000+0  36508-3 0  9999
2 60509  97.3822 267.2755 0002207 216.4069 143.7030 15.44561964104420
TRANSPORTER-11 OBJECT AU
1 60510U 24149AU  26181.69969748  .00015034  00000+0  37131-3 0  9998
2 60510  97.3736 265.5306 0002916 219.4051 140.6984 15.40591821104391
FLOCK 4BE-2             
1 60511U 24149AV  26181.20047560  .00054404  00000+0  83383-3 0  9999
2 60511  97.3841 268.8781 0004615 212.1837 147.9135 15.54149312104524
