OBJECT_NAME,OBJECT_ID,EPOCH,MEAN_MOTION,ECCENTRICITY,INCLINATION,RA_OF_ASC_NODE,ARG_OF_PERICENTER,MEAN_ANOMALY,EPHEMERIS_TYPE,CLASSIFICATION_TYPE,NORAD_CAT_ID,ELEMENT_SET_NO,REV_AT_EPOCH,BSTAR,MEAN_MOTION_DOT,MEAN_MOTION_DDOT
WREN-1,2024-149L,2026-06-30T04:18:40.165056,15.42055790,.0004297,97.3771,265.4323,197.1500,162.9603,0,U,60478,999,10432,.44620547E-3,.18996E-3,0
TOMORROW-S1,2024-149M,2026-06-30T15:35:39.217344,15.32904279,.0002953,97.3752,262.0805,166.7550,193.3771,0,U,60479,999,10415,.23674E-3,.7446E-4,0
FLOCK 4BE-18,2024-149N,2026-06-30T04:32:00.032928,15.42263296,.00038272,97.3733,265.0572,188.2931,171.8253,0,U,60480,999,10431,.3602767E-3,.1542E-3,0
FLOCK 4BE-7,2024-149P,2026-06-30T12:48:25.710624,15.40847879,.00033199,97.3762,264.7198,186.6447,173.4757,0,U,60481,999,10430,.53602856E-3,.21945E-3,0
TOMORROW-S2,2024-149T,2026-06-30T19:27:09.239904,15.32948293,.000247,97.3821,262.7429,188.0669,172.0534,0,U,60485,999,10417,.28622E-3,.9032E-4,0
FLOCK 4BE-36,2024-149U,2026-06-30T11:27:28.001088,15.43103581,.00035724,97.3751,266.0678,195.6017,164.5121,0,U,60486,999,10440,.29354064E-3,.12902E-3,0
FLOCK 4BE-25,2024-149V,2026-06-30T05:19:28.257312,15.39167310,.00026028,97.3804,264.4627,176.8937,183.2325,0,U,60487,999,10424,.33280321E-3,.12845E-3,0
FLOCK 4BE-31,2024-149W,2026-06-30T05:41:14.690112,15.44594041,.00026489,97.3806,266.7204,190.6690,169.4502,0,U,60488,999,10439,.43311591E-3,.20079E-3,0
FLOCK 4BE-20,2024-149X,2026-06-30T18:39:13.025376,15.38452214,.0003831,97.3704,263.8665,194.9810,165.1323,0,U,60489,999,10430,.57166E-3,.21641E-3,0
FLOCK 4BE-23,2024-149Y,2026-06-30T04:27:01.451808,15.37993684,.00032521,97.3787,263.6555,199.8799,160.2320,0,U,60490,999,10419,.35214732E-3,.13087E-3,0
FLOCK 4BE-17,2024-149AA,2026-06-30T05:11:53.731968,15.40151115,.00032415,97.3779,264.6911,186.7218,173.3985,0,U,60492,999,10426,.36580271E-3,.14595E-3,0
NUSAT-50 (NANCY ROMAN),2024-149AB,2026-06-30T04:24:32.356512,15.30075804,.00044448,97.3794,262.3501,138.0677,222.0905,0,U,60493,999,10411,.29624724E-3,.8551E-4,0
FLOCK 4BE-22,2024-149AC,2026-06-30T04:28:25.568256,15.41546540,.00035008,97.3740,264.8729,199.1242,160.9874,0,U,60494,999,10430,.34861096E-3,.14563E-3,0
FLOCK 4BE-34,2024-149AD,2026-06-30T15:47:37.265280,15.41540116,.0003376,97.3787,266.1804,204.2123,155.8966,0,U,60495,999,10440,.36458E-3,.15232E-3,0
TYCHE,2024-149AE,2026-06-30T13:53:12.755904,15.25862065,.0002001,97.3759,259.2159,203.8329,156.2817,0,U,60496,999,10394,.17685E-3,.4456E-4,0
FLOCK 4BE-32,2024-149AF,2026-06-30T17:56:17.133792,15.42609319,.0003668,97.3725,265.8242,201.1430,158.9666,0,U,60497,999,10442,.42877E-3,.18589E-3,0
NUSAT-48 (HENRIETTA LEAVITT),2024-149AG,2026-06-30T04:08:08.998368,15.30050739,.00028691,97.3914,262.6066,207.9652,152.1434,0,U,60498,999,10412,.92889563E-3,.27011E-3,0
NUSAT-49 (KLARA DAN VON NEUMANN),2024-149AJ,2026-06-30T11:26:24.026208,15.30157377,.00010551,97.3785,262.6732,214.2373,145.8800,0,U,60500,999,10416,.2808375E-3,.812E-4,0
FLOCK 4BE-11,2024-149AK,2026-06-30T05:11:19.345632,15.43398614,.00036726,97.3705,265.5297,202.7259,157.3827,0,U,60501,999,10436,.35396912E-3,.15737E-3,0
YAM-7,2024-149AN,2026-06-30T15:27:18.931104,15.31997732,.0002249,97.3787,261.8398,223.2257,136.8808,0,U,60504,999,10411,.24033E-3,.7347E-4,0
FLOCK 4BE-24,2024-149AP,2026-06-30T04:50:31.368480,15.43546513,.00037814,97.3723,265.7761,216.4880,143.6111,0,U,60505,999,10437,.40585265E-3,.18152E-3,0
LUR-1,2024-149AQ,2026-06-30T04:35:59.187264,15.30268934,.00026579,97.3742,259.9264,247.0463,113.0498,0,U,60506,999,10396,.22074219E-3,.6388E-4,0
TANAGER-1,2024-149AR,2026-06-29T17:25:33.170304,15.44749026,.00026928,97.2372,274.9407,239.9855,120.1127,0,U,60507,999,10497,.10079993E-4,.386E-5,0
EAGLEEYE,2024-149AS,2026-06-30T17:27:55.728576,15.73545361,.0004954,97.3719,275.8377,208.7374,151.3617,0,U,60508,999,10506,.83661E-3,.117842E-2,0
FLOCK 4BE-29,2024-149AT,2026-06-30T04:53:25.775520,15.44561964,.00022071,97.3822,267.2755,216.4069,143.7030,0,U,60509,999,10442,.36507526E-3,.16885E-3,0
TRANSPORTER-11 OBJECT AU,2024-149AU,2026-06-30T16:47:33.862272,15.40591821,.0002916,97.3736,265.5306,219.4051,140.6984,0,U,60510,999,10439,.37131E-3,.15034E-3,0
FLOCK 4BE-2,2024-149AV,2026-06-30T04:48:41.091840,15.54149312,.00046154,97.3841,268.8781,212.1837,147.9135,0,U,60511,999,10452,.83383046E-3,.54404E-3,0
